H1 CPF 01  gfz 2021 12 24 14  8582 tandemx   
H2 1003001  6202 36605    2021 12 24 12 59 42 2021 12 29 00 00 42   120 1 1  0 0 0
H9
10 0 59576  65502.000000  0    4898906.354    413562.934  -4833111.992
10 0 59576  65622.000000  0    5496615.059    249893.284  -4153026.109
10 0 59576  65742.000000  0    5995698.379     72278.752  -3400165.910
10 0 59576  65862.000000  0    6387158.160   -114386.727  -2587659.782
10 0 59576  65982.000000  0    6663949.419   -304904.579  -1729715.173
10 0 59576  66102.000000  0    6821120.072   -493898.227   -841370.114
10 0 59576  66222.000000  0    6855910.390   -675945.339     61773.340
10 0 59576  66342.000000  0    6767810.394   -845713.264    963828.865
10 0 59576  66462.000000  0    6558571.919   -998093.950   1848913.509
10 0 59576  66582.000000  0    6232175.867  -1128334.655   2701436.861
10 0 59576  66702.000000  0    5794751.946  -1232160.706   3506384.833
10 0 59576  66822.000000  0    5254457.140  -1305887.336   4249589.835
10 0 59576  66942.000000  0    4621314.703  -1346518.919   4917984.235
10 0 59576  67062.000000  0    3907017.970  -1351830.992   5499830.583
10 0 59576  67182.000000  0    3124705.129  -1320434.327   5984925.998
10 0 59576  67302.000000  0    2288708.860  -1251820.755   6364776.445
10 0 59576  67422.000000  0    1414288.350  -1146389.278   6632739.696
10 0 59576  67542.000000  0     517346.426  -1005452.020   6784136.285
10 0 59576  67662.000000  0    -385861.870   -831219.140   6816325.333
10 0 59576  67782.000000  0   -1279023.274   -626764.231   6728746.372
10 0 59576  67902.000000  0   -2146059.406   -395970.216   6522928.173
10 0 59576  68022.000000  0   -2971414.708   -143456.286   6202463.953
10 0 59576  68142.000000  0   -3740335.958    125512.831   5772953.751
10 0 59576  68262.000000  0   -4439139.468    405133.711   5241912.756
10 0 59576  68382.000000  0   -5055460.324    689185.515   4618645.638
10 0 59576  68502.000000  0   -5578479.319    971163.564   3914088.649
10 0 59576  68622.000000  0   -5999121.418   1244422.758   3140620.555
10 0 59576  68742.000000  0   -6310222.519   1502327.635   2311846.627
10 0 59576  68862.000000  0   -6506660.579   1738405.255   1442357.638
10 0 59576  68982.000000  0   -6585447.801   1946497.826    547468.260
10 0 59576  69102.000000  0   -6545779.430   2120911.000   -357060.919
10 0 59576  69222.000000  0   -6389037.766   2256552.983  -1255309.935
10 0 59576  69342.000000  0   -6118752.426   2349061.800  -2131487.978
10 0 59576  69462.000000  0   -5740518.174   2394917.983  -2970219.073
10 0 59576  69582.000000  0   -5261870.527   2391538.881  -3756817.907
10 0 59576  69702.000000  0   -4692124.643   2337351.935  -4477548.311
10 0 59576  69822.000000  0   -4042182.828   2231846.361  -5119860.337
10 0 59576  69942.000000  0   -3324315.763   2075602.678  -5672601.621
10 0 59576  70062.000000  0   -2551924.290   1870299.927  -6126201.176
10 0 59576  70182.000000  0   -1739285.081   1618700.476  -6472825.223
10 0 59576  70302.000000  0    -901284.745   1324612.587  -6706500.199
10 0 59576  70422.000000  0     -53150.421    992832.183  -6823204.666
10 0 59576  70542.000000  0     789820.412    629065.498  -6820930.363
10 0 59576  70662.000000  0    1612528.971    239833.133  -6699715.338
10 0 59576  70782.000000  0    2400340.517   -167644.397  -6461643.032
10 0 59576  70902.000000  0    3139338.890   -585576.609  -6110810.502
10 0 59576  71022.000000  0    3816569.772  -1005747.536  -5653264.856
10 0 59576  71142.000000  0    4420266.594  -1419672.072  -5096909.304
10 0 59576  71262.000000  0    4940059.301  -1818763.790  -4451378.982
10 0 59576  71382.000000  0    5367159.429  -2194510.064  -3727884.807
10 0 59576  71502.000000  0    5694518.282  -2538650.798  -2939028.047
10 0 59576  71622.000000  0    5916954.303  -2843357.347  -2098586.609
10 0 59576  71742.000000  0    6031245.113  -3101407.270  -1221276.395
10 0 59576  71862.000000  0    6036182.336  -3306350.532   -322492.683
10 0 59576  71982.000000  0    5932586.796  -3452663.271    581964.765
10 0 59576  72102.000000  0    5723283.507  -3535884.927   1476176.331
10 0 59576  72222.000000  0    5413035.634  -3552734.570   2344393.152
10 0 59576  72342.000000  0    5008437.214  -3501202.138   3171323.094
10 0 59576  72462.000000  0    4517771.091  -3380613.771   3942407.215
10 0 59576  72582.000000  0    3950835.156  -3191668.843   4644080.483
10 0 59576  72702.000000  0    3318740.419  -2936449.936   5264013.774
10 0 59576  72822.000000  0    2633685.133  -2618402.799   5791329.540
10 0 59576  72942.000000  0    1908713.356  -2242288.616   6216788.947
10 0 59576  73062.000000  0    1157461.604  -1814110.551   6532948.311
10 0 59576  73182.000000  0     393899.181  -1341015.461   6734283.279
10 0 59576  73302.000000  0    -367932.787   -831172.430   6817279.379
10 0 59576  73422.000000  0   -1114179.001   -293630.638   6780488.745
10 0 59576  73542.000000  0   -1831420.733    261840.993   6624553.573
10 0 59576  73662.000000  0   -2506916.164    824930.853   6352195.677
10 0 59576  73782.000000  0   -3128826.798   1384975.097   5968172.194
10 0 59576  73902.000000  0   -3686426.635   1931158.651   5479198.059
10 0 59576  74022.000000  0   -4170291.496   2452724.152   4893835.405
10 0 59576  74142.000000  0   -4572464.369   2939185.568   4222349.436
10 0 59576  74262.000000  0   -4886592.886   3380540.416   3476531.796
10 0 59576  74382.000000  0   -5108035.493   3767477.418   2669495.705
10 0 59576  74502.000000  0   -5233934.731   4091575.204   1815445.368
10 0 59576  74622.000000  0   -5263255.769   4345486.945    929422.205
10 0 59576  74742.000000  0   -5196786.924   4523105.103     27032.625
10 0 59576  74862.000000  0   -5037103.270   4619701.643   -875834.423
10 0 59576  74982.000000  0   -4788494.736   4632042.355  -1763296.693
10 0 59576  75102.000000  0   -4456858.187   4558470.187  -2619767.619
10 0 59576  75222.000000  0   -4049558.054   4398954.717  -3430236.840
10 0 59576  75342.000000  0   -3575259.093   4155108.498  -4180536.257
10 0 59576  75462.000000  0   -3043736.952   3830170.613  -4857585.874
10 0 59576  75582.000000  0   -2465672.512   3428958.757  -5449615.472
10 0 59576  75702.000000  0   -1852435.208   2957792.769  -5946361.286
10 0 59576  75822.000000  0   -1215857.488   2424389.163  -6339234.618
10 0 59576  75942.000000  0    -568006.738   1837729.764  -6621458.467
10 0 59576  76062.000000  0      79040.474   1207909.022  -6788173.072
10 0 59576  76182.000000  0     713418.089    545961.308  -6836510.643
10 0 59576  76302.000000  0    1323683.288   -136328.610  -6765640.757
10 0 59576  76422.000000  0    1899018.607   -826631.382  -6576782.029
10 0 59576  76542.000000  0    2429418.661  -1512289.922  -6273182.912
10 0 59576  76662.000000  0    2905861.693  -2180545.577  -5860072.026
10 0 59576  76782.000000  0    3320462.599  -2818770.476  -5344578.740
10 0 59576  76902.000000  0    3666606.998  -3414706.028  -4735621.963
10 0 59576  77022.000000  0    3939060.176  -3956699.138  -4043764.763
10 0 59576  77142.000000  0    4134050.098  -4433931.599  -3281041.571
10 0 59576  77262.000000  0    4249324.589  -4836640.639  -2460757.504
10 0 59576  77382.000000  0    4284179.723  -5156324.907  -1597260.654
10 0 59576  77502.000000  0    4239456.096  -5385930.016   -705690.835
10 0 59576  77622.000000  0    4117504.269  -5520007.466    198289.715
10 0 59576  77742.000000  0    3922118.832  -5554843.566   1098777.943
10 0 59576  77862.000000  0    3658443.358  -5488554.404   1979918.708
10 0 59576  77982.000000  0    3332846.824  -5321142.462   2826193.574
10 0 59576  78102.000000  0    2952775.697  -5054516.067   3622701.275
10 0 59576  78222.000000  0    2526586.444  -4692469.878   4355426.170
10 0 59576  78342.000000  0    2063362.554  -4240627.521   5011488.332
10 0 59576  78462.000000  0    1572720.109  -3706347.904   5579370.426
10 0 59576  78582.000000  0    1064606.850  -3098597.783   6049118.266
10 0 59576  78702.000000  0     549098.664  -2427793.608   6412509.987
10 0 59576  78822.000000  0      36199.267  -1705617.651   6663192.927
10 0 59576  78942.000000  0    -464353.014   -944811.830   6796788.331
10 0 59576  79062.000000  0    -943268.891   -158951.127   6810964.207
10 0 59576  79182.000000  0   -1391879.623    637799.190   6705473.228
10 0 59576  79302.000000  0   -1802293.430   1430938.393   6482156.418
10 0 59576  79422.000000  0   -2167534.384   2205893.201   6144912.996
10 0 59576  79542.000000  0   -2481661.820   2948285.318   5699636.523
10 0 59576  79662.000000  0   -2739868.091   3644199.500   5154117.820
10 0 59576  79782.000000  0   -2938554.431   4280447.807   4517915.592
10 0 59576  79902.000000  0   -3075382.240   4844825.323   3802194.139
10 0 59576  80022.000000  0   -3149298.400   5326351.809   3019530.560
10 0 59576  80142.000000  0   -3160533.685   5715492.949   2183693.607
10 0 59576  80262.000000  0   -3110574.785   6004355.603   1309398.923
10 0 59576  80382.000000  0   -3002109.825   6186853.277    412045.488
10 0 59576  80502.000000  0   -2838948.740   6258837.709   -492562.823
10 0 59576  80622.000000  0   -2625921.141   6218191.890  -1388505.025
10 0 59576  80742.000000  0   -2368752.641   6064880.921  -2260034.713
10 0 59576  80862.000000  0   -2073922.019   5800957.273  -3091864.674
10 0 59576  80982.000000  0   -1748506.235   5430526.662  -3869437.249
10 0 59576  81102.000000  0   -1400017.146   4959674.165  -4579179.676
10 0 59576  81222.000000  0   -1036233.599   4396352.505  -5208736.809
10 0 59576  81342.000000  0    -665032.874   3750238.093  -5747179.352
10 0 59576  81462.000000  0    -294224.223   3032555.971  -6185185.467
10 0 59576  81582.000000  0      68611.438   2255877.295  -6515191.236
10 0 59576  81702.000000  0     416271.604   1433896.489  -6731509.088
10 0 59576  81822.000000  0     742070.400    581190.920  -6830416.924
10 0 59576  81942.000000  0    1039963.505   -287034.017  -6810215.099
99
